      2.10          N: GNSS NAV DATA                        RINEX VERSION / TYPE
fic2rin                                 12/17/2018 00:19:14 PGM / RUN BY / DATE
                                                            END OF HEADER
 7 18 12 16 20  0  0.0 6.932672113180e-05-6.934897101019e-12 0.000000000000e+00
    5.700000000000e+01 6.300000000000e+01 4.891632327550e-09 1.046756815429e+00
    3.471970558167e-06 1.211369119119e-02 6.696209311485e-06 5.153627195358e+03
    7.200000000000e+04-3.352761268616e-08 3.055448892191e+00 1.620501279831e-07
    9.571272347740e-01 2.500625000000e+02-2.481039920540e+00-8.451066306548e-09
   -6.107397254753e-11 1.000000000000e+00 2.032000000000e+03 0.000000000000e+00
    2.400000000000e+00 0.000000000000e+00-1.117587089539e-08 5.700000000000e+01
    6.480600000000e+04 4.000000000000e+00
27 18 12 16 20  0  0.0-3.339070826769e-05-5.911715561524e-12 0.000000000000e+00
    9.000000000000e+00-2.390625000000e+01 3.896233722345e-09-2.409862557180e+00
   -1.169741153717e-06 6.302343797870e-03 9.039416909218e-06 5.153702753067e+03
    7.200000000000e+04-9.313225746155e-09-1.152298364389e+00-4.656612873077e-08
    9.781673980384e-01 2.155937500000e+02 4.277051899008e-01-7.718535793712e-09
    4.643050544549e-11 1.000000000000e+00 2.032000000000e+03 0.000000000000e+00
    2.400000000000e+00 0.000000000000e+00 1.862645149231e-09 9.000000000000e+00
    6.480600000000e+04 4.000000000000e+00
17 18 12 16 20  0  0.0-1.771701499820e-05 5.115907697473e-12 0.000000000000e+00
    1.600000000000e+01-5.750000000000e+00 3.757299363743e-09-2.430794458655e+00
   -2.682209014893e-07 1.297157933004e-02 8.603557944298e-06 5.153662530899e+03
    7.200000000000e+04 1.490116119385e-07-1.097065770884e+00-5.215406417847e-08
    9.836078952855e-01 2.260937500000e+02-1.748421399832e+00-7.493526421168e-09
    5.107355599004e-11 1.000000000000e+00 2.032000000000e+03 0.000000000000e+00
    2.400000000000e+00 0.000000000000e+00-1.117587089539e-08 1.600000000000e+01
    6.480600000000e+04 4.000000000000e+00
24 18 12 16 20  0  0.0-5.957623943686e-05-4.547473508865e-13 0.000000000000e+00
    4.900000000000e+01 7.121875000000e+01 5.230932175036e-09 2.041065639011e+00
    3.669410943985e-06 7.880410063080e-03 6.878748536110e-06 5.153738435745e+03
    7.200000000000e+04-2.067536115646e-07 2.992280297262e+00-2.607703208923e-08
    9.402275392910e-01 2.360937500000e+02 5.663062663234e-01-8.423565161015e-09
    1.310768884500e-10 1.000000000000e+00 2.032000000000e+03 0.000000000000e+00
    2.400000000000e+00 0.000000000000e+00 2.793967723846e-09 4.900000000000e+01
    6.480600000000e+04 4.000000000000e+00
15 18 12 16 20  0  0.0-3.360039554536e-04 1.477928890381e-12 0.000000000000e+00
    7.300000000000e+01-4.687500000000e-01 5.199859452161e-09 2.964977172503e+00
   -1.192092895508e-07 1.112908020150e-02 1.106224954128e-05 5.153613708496e+03
    7.200000000000e+04-4.656612873077e-08 1.902946586781e+00-1.471489667892e-07
    9.277465088688e-01 1.483437500000e+02 7.472137559493e-01-8.103194673441e-09
   -4.714482091388e-11 1.000000000000e+00 2.032000000000e+03 0.000000000000e+00
    2.400000000000e+00 0.000000000000e+00-1.117587089539e-08 7.300000000000e+01
    6.480600000000e+04 4.000000000000e+00
11 18 12 16 20  0  0.0-6.877942942083e-04 4.661160346586e-12 0.000000000000e+00
    5.800000000000e+01 4.187500000000e+00 5.714880904872e-09 1.007652997615e+00
    1.117587089539e-08 1.668185484596e-02 7.152557373047e-06 5.153676351547e+03
    7.200000000000e+04-1.210719347000e-07-5.368125182932e-01-3.706663846970e-07
    9.079664432583e-01 2.153437500000e+02 1.848614931375e+00-8.900370736166e-09
    2.807259790781e-10 1.000000000000e+00 2.032000000000e+03 0.000000000000e+00
    2.400000000000e+00 0.000000000000e+00-1.210719347000e-08 5.800000000000e+01
    6.480600000000e+04 4.000000000000e+00
23 18 12 16 20  0  0.0-2.033431082964e-04 1.136868377216e-12 0.000000000000e+00
    6.700000000000e+01 1.093750000000e+00 4.866988443890e-09 2.458568294861e+00
   -1.862645149231e-09 1.264767418616e-02 1.027062535286e-05 5.153680828094e+03
    7.200000000000e+04-4.284083843231e-08 1.975282010721e+00-2.626329660416e-07
    9.430791499120e-01 1.744687500000e+02-2.314833372227e+00-7.945330954926e-09
    1.535778257043e-11 1.000000000000e+00 2.032000000000e+03 0.000000000000e+00
    2.400000000000e+00 0.000000000000e+00-2.002343535423e-08 6.700000000000e+01
    6.480600000000e+04 4.000000000000e+00
19 18 12 16 20  0  0.0-3.732005134225e-04 3.865352482535e-12 0.000000000000e+00
    5.600000000000e+01-6.437500000000e+00 3.857303529318e-09 3.384281461707e-01
   -2.272427082062e-07 9.403928648680e-03 8.938834071159e-06 5.153613830566e+03
    7.200000000000e+04-2.533197402954e-07-1.050484718368e+00-2.048909664154e-08
    9.813218795152e-01 2.230625000000e+02 1.322777894529e+00-7.859255940985e-09
   -1.178620522847e-11 1.000000000000e+00 2.032000000000e+03 0.000000000000e+00
    2.400000000000e+00 0.000000000000e+00-1.536682248116e-08 5.600000000000e+01
    6.480600000000e+04 4.000000000000e+00
21 18 12 16 20  0  0.0-2.861707471311e-04 6.707523425575e-12 0.000000000000e+00
    5.600000000000e+01 9.437500000000e+00 5.020566269594e-09-5.931806141821e-02
    5.513429641724e-07 2.457277267240e-02 6.916001439095e-06 5.153565128326e+03
    7.200000000000e+04-4.712492227554e-07-1.564801545980e-01-4.097819328308e-08
    9.467438796599e-01 2.447812500000e+02-1.503334981628e+00-8.772865425058e-09
    3.746584631717e-10 1.000000000000e+00 2.032000000000e+03 0.000000000000e+00
    2.400000000000e+00 0.000000000000e+00-9.778887033463e-09 5.600000000000e+01
    6.480600000000e+04 4.000000000000e+00
32 18 12 16 20  0  0.0-3.158650361001e-04 1.568878360558e-11 0.000000000000e+00
    4.400000000000e+01-1.406250000000e+00 4.543760694443e-09-1.627276922547e+00
    9.313225746155e-09 2.381509519182e-03 1.111999154091e-05 5.153739578247e+03
    7.200000000000e+04 3.539025783539e-08 1.984776561179e+00-1.676380634308e-08
    9.565835398069e-01 1.623125000000e+02-2.630287102404e+00-7.930687487824e-09
    2.142946405177e-12 1.000000000000e+00 2.032000000000e+03 0.000000000000e+00
    2.400000000000e+00 0.000000000000e+00 4.656612873077e-10 4.400000000000e+01
    6.480600000000e+04 4.000000000000e+00
22 18 12 16 20  0  0.0-6.002504378557e-04-9.208633855451e-12 0.000000000000e+00
    1.200000000000e+02-5.231250000000e+01 5.487371428189e-09 3.093335897171e+00
   -2.937391400337e-06 7.010740460828e-03 5.740672349930e-06 5.153629236221e+03
    7.200000000000e+04 1.285225152969e-07 8.785833635179e-01 5.587935447693e-09
    9.261255254169e-01 2.485000000000e+02-1.449943944511e+00-8.458209461232e-09
   -1.357199389945e-11 1.000000000000e+00 2.032000000000e+03 0.000000000000e+00
    2.400000000000e+00 0.000000000000e+00-1.816079020500e-08 1.200000000000e+02
    6.480600000000e+04 4.000000000000e+00
25 18 12 16 20  0  0.0-6.921864114702e-04-5.456968210638e-12 0.000000000000e+00
    1.150000000000e+02-1.121875000000e+01 4.513759444770e-09 1.057742509507e-01
   -5.476176738739e-07 7.836920674890e-03 5.349516868591e-06 5.153782024384e+03
    7.200000000000e+04 1.490116119385e-08-2.193370584449e+00 1.266598701477e-07
    9.720978474801e-01 2.802187500000e+02 8.449632399963e-01-8.307846055135e-09
   -3.728726745007e-10 1.000000000000e+00 2.032000000000e+03 0.000000000000e+00
    2.400000000000e+00 0.000000000000e+00 5.587935447693e-09 1.150000000000e+02
    6.480600000000e+04 4.000000000000e+00
18 18 12 16 20  0  0.0 6.158370524645e-06 3.979039320257e-12 0.000000000000e+00
    6.800000000000e+01 6.125000000000e+00 4.755912388555e-09 1.466822133635e+00
    1.229345798492e-07 1.495905127376e-02 6.528571248055e-06 5.153611675262e+03
    7.200000000000e+04-2.514570951462e-07-1.482487929401e-01-2.682209014893e-07
    9.524525561234e-01 2.501250000000e+02 1.365970514246e+00-8.369991500885e-09
    3.450143712334e-10 1.000000000000e+00 2.032000000000e+03 0.000000000000e+00
    2.400000000000e+00 0.000000000000e+00-6.519258022308e-09 6.800000000000e+01
    6.480600000000e+04 4.000000000000e+00
12 18 12 16 20  0  0.0 2.839784137905e-04-2.955857780762e-12 0.000000000000e+00
    8.000000000000e+01-1.009375000000e+01 4.148744240422e-09 3.958018007451e-01
   -5.513429641724e-07 7.166841765866e-03 6.100162863731e-06 5.153730340958e+03
    7.200000000000e+04-5.774199962616e-08-2.131047677592e+00 9.685754776001e-08
    9.845481756405e-01 2.737812500000e+02 1.020448024385e+00-8.099265938365e-09
   -3.943021385525e-10 1.000000000000e+00 2.032000000000e+03 0.000000000000e+00
    2.400000000000e+00 0.000000000000e+00-1.257285475731e-08 8.000000000000e+01
    6.480600000000e+04 4.000000000000e+00
10 18 12 16 20  0  0.0 1.505808904767e-04-5.456968210638e-12 0.000000000000e+00
    9.400000000000e+01-5.243750000000e+01 4.742697552390e-09-2.922777313864e-01
   -2.682209014893e-06 4.119688179344e-03 6.584450602531e-06 5.153659862518e+03
    7.200000000000e+04 7.450580596924e-08 9.423709015306e-01 5.774199962616e-08
    9.618399580721e-01 2.525937500000e+02-2.809466656100e+00-8.246057767119e-09
   -9.607543049875e-11 1.000000000000e+00 2.032000000000e+03 0.000000000000e+00
    3.400000000000e+00 0.000000000000e+00 1.862645149231e-09 9.400000000000e+01
    6.480600000000e+04 4.000000000000e+00
 9 18 12 16 20  0  0.0 4.824688658118e-04-3.979039320257e-12 0.000000000000e+00
    8.500000000000e+01 5.500000000000e+00 4.742340394656e-09-1.993814654863e+00
    3.799796104431e-07 1.450816285796e-03 1.000054180622e-05 5.153773349762e+03
    7.200000000000e+04 3.725290298462e-09 1.978838705432e+00 9.313225746155e-09
    9.522678305317e-01 1.846250000000e+02 1.685215794539e+00-8.031405968867e-09
    9.286101089098e-12 1.000000000000e+00 2.032000000000e+03 0.000000000000e+00
    2.400000000000e+00 0.000000000000e+00 1.396983861923e-09 8.500000000000e+01
    6.480600000000e+04 4.000000000000e+00
